GLOBALSTAR M023         
1 25621U 99004A   25346.11039727 -.00000083  00000+0  11807-3 0  9999
2 25621  52.0098 231.6581 0010043 155.7345 353.4236 12.62510162238203
GLOBALSTAR M040         
1 25622U 99004B   25346.15802847 -.00000074  00000+0  16544-3 0  9998
2 25622  51.9910 235.9296 0001841  64.1781 100.6153 12.62025163237726
GLOBALSTAR M036         
1 25623U 99004C   25345.68419390 -.00000063  00000+0  28749-3 0  9991
2 25623  51.9945 132.4681 0010883  35.4738 337.4431 11.86618325200051
GLOBALSTAR M038         
1 25624U 99004D   25346.02401220 -.00000067  00000+0  23290-3 0  9994
2 25624  51.9986 279.4178 0002503  59.8642  21.5370 12.32537253224303
GLOBALSTAR M022         
1 25649U 99012A   25345.97962877 -.00000090  00000+0 -40699-4 0  9993
2 25649  52.0008 167.5769 0003254 142.8538  24.2560 12.02508015197762
GLOBALSTAR M041         
1 25650U 99012B   25346.12982934 -.00000072  00000+0  16953-3 0  9993
2 25650  52.0038  54.0440 0000683 317.1891  42.8892 11.96681372199581
GLOBALSTAR M046         
1 25651U 99012C   25345.36358762 -.00000211  00000+0 -13434-2 0  9991
2 25651  52.0043 112.9168 0001481 218.2313 158.6368 12.09417067205109
GLOBALSTAR M037         
1 25652U 99012D   25346.07126640 -.00000030  00000+0  41207-3 0  9997
2 25652  52.0025   2.3283 0001893 215.0849 177.7650 12.62458308233745
